{
  "type": "FeatureCollection",
  "features": [
    {
      "type": "Feature",
      "properties": {
        "norad_id": 31307,
        "name": "GALAXY 17 (G-17)",
        "group": "intelsat",
        "lat": 1.4828142559423751,
        "lon": 117.57259253087717,
        "alt_km": 35801.9132344814,
        "timestamp": "2025-12-20T07:33:50.471299+00:00",
        "meta_object_name": "GALAXY 17 (G-17)",
        "meta_object_id": "2007-016B",
        "meta_epoch": "2025-12-19T12:51:34.890336",
        "meta_mean_motion": 1.00272466,
        "meta_eccentricity": 0.0005441,
        "meta_inclination": 2.5163,
        "meta_ra_of_asc_node": 82.2108,
        "meta_arg_of_pericenter": 169.7532,
        "meta_mean_anomaly": 304.3514,
        "meta_ephemeris_type": 0,
        "meta_classification_type": "U",
        "meta_norad_cat_id": 31307,
        "meta_element_set_no": 999,
        "meta_rev_at_epoch": 6800,
        "meta_bstar": 0,
        "meta_mean_motion_dot": -1.84e-06,
        "meta_mean_motion_ddot": 0,
        "tle_line1": "1 31307U 07016B   25353.53582049 -.00000184  00000+0  00000+0 0  9994",
        "tle_line2": "2 31307   2.5163  82.2108 0005441 169.7532 304.3514  1.00272466 68003"
      },
      "geometry": {
        "type": "Point",
        "coordinates": [
          117.57259253087717,
          1.4828142559423751
        ]
      }
    },
    {
      "type": "Feature",
      "properties": {
        "norad_id": 31862,
        "name": "DIRECTV 10",
        "group": "intelsat",
        "lat": -0.0009850971237721487,
        "lon": 99.78921899061544,
        "alt_km": 35786.64138460926,
        "timestamp": "2025-12-20T07:33:50.471311+00:00",
        "meta_object_name": "DIRECTV 10",
        "meta_object_id": "2007-032A",
        "meta_epoch": "2025-12-19T19:37:07.901184",
        "meta_mean_motion": 1.00269717,
        "meta_eccentricity": 2.514e-05,
        "meta_inclination": 0.0066,
        "meta_ra_of_asc_node": 103.6685,
        "meta_arg_of_pericenter": 84.488,
        "meta_mean_anomaly": 91.9811,
        "meta_ephemeris_type": 0,
        "meta_classification_type": "U",
        "meta_norad_cat_id": 31862,
        "meta_element_set_no": 999,
        "meta_rev_at_epoch": 4379,
        "meta_bstar": 0,
        "meta_mean_motion_dot": -7.8e-07,
        "meta_mean_motion_ddot": 0,
        "tle_line1": "1 31862U 07032A   25353.81745256 -.00000078  00000+0  00000+0 0  9992",
        "tle_line2": "2 31862   0.0066 103.6685 0000251  84.4880  91.9811  1.00269717 43798"
      },
      "geometry": {
        "type": "Point",
        "coordinates": [
          99.78921899061544,
          -0.0009850971237721487
        ]
      }
    },
    {
      "type": "Feature",
      "properties": {
        "norad_id": 32253,
        "name": "INTELSAT 11 (IS-11)",
        "group": "intelsat",
        "lat": -2.208374315910232,
        "lon": 35.06830767490287,
        "alt_km": 36161.79231991427,
        "timestamp": "2025-12-20T07:33:50.471324+00:00",
        "meta_object_name": "INTELSAT 11 (IS-11)",
        "meta_object_id": "2007-044B",
        "meta_epoch": "2025-12-19T15:54:17.392320",
        "meta_mean_motion": 0.99051924,
        "meta_eccentricity": 0.0008546,
        "meta_inclination": 3.0972,
        "meta_ra_of_asc_node": 80.9007,
        "meta_arg_of_pericenter": 168.5699,
        "meta_mean_anomaly": 272.8399,
        "meta_ephemeris_type": 0,
        "meta_classification_type": "U",
        "meta_norad_cat_id": 32253,
        "meta_element_set_no": 999,
        "meta_rev_at_epoch": 6667,
        "meta_bstar": 0,
        "meta_mean_motion_dot": -3.8e-07,
        "meta_mean_motion_ddot": 0,
        "tle_line1": "1 32253U 07044B   25353.66270130 -.00000038  00000+0  00000+0 0  9993",
        "tle_line2": "2 32253   3.0972  80.9007 0008546 168.5699 272.8399  0.99051924 66673"
      },
      "geometry": {
        "type": "Point",
        "coordinates": [
          35.06830767490287,
          -2.208374315910232
        ]
      }
    },
    {
      "type": "Feature",
      "properties": {
        "norad_id": 32388,
        "name": "HORIZONS-2",
        "group": "intelsat",
        "lat": 1.558430399734604,
        "lon": 128.77303915314448,
        "alt_km": 35802.13099090691,
        "timestamp": "2025-12-20T07:33:50.471373+00:00",
        "meta_object_name": "HORIZONS-2",
        "meta_object_id": "2007-063B",
        "meta_epoch": "2025-12-19T11:12:06.914880",
        "meta_mean_motion": 1.00272112,
        "meta_eccentricity": 0.0004573,
        "meta_inclination": 2.1381,
        "meta_ra_of_asc_node": 82.8899,
        "meta_arg_of_pericenter": 193.0315,
        "meta_mean_anomaly": 266.6388,
        "meta_ephemeris_type": 0,
        "meta_classification_type": "U",
        "meta_norad_cat_id": 32388,
        "meta_element_set_no": 999,
        "meta_rev_at_epoch": 6601,
        "meta_bstar": 0,
        "meta_mean_motion_dot": -2.31e-06,
        "meta_mean_motion_ddot": 0,
        "tle_line1": "1 32388U 07063B   25353.46674670 -.00000231  00000+0  00000+0 0  9993",
        "tle_line2": "2 32388   2.1381  82.8899 0004573 193.0315 266.6388  1.00272112 66014"
      },
      "geometry": {
        "type": "Point",
        "coordinates": [
          128.77303915314448,
          1.558430399734604
        ]
      }
    },
    {
      "type": "Feature",
      "properties": {
        "norad_id": 32729,
        "name": "DIRECTV 11",
        "group": "intelsat",
        "lat": 0.01190724117679527,
        "lon": 103.41276115877726,
        "alt_km": 35785.16870674096,
        "timestamp": "2025-12-20T07:33:50.471389+00:00",
        "meta_object_name": "DIRECTV 11",
        "meta_object_id": "2008-013A",
        "meta_epoch": "2025-12-19T16:13:00.599232",
        "meta_mean_motion": 1.00272169,
        "meta_eccentricity": 4.774e-05,
        "meta_inclination": 0.0442,
        "meta_ra_of_asc_node": 195.9689,
        "meta_arg_of_pericenter": 333.3014,
        "meta_mean_anomaly": 63.3182,
        "meta_ephemeris_type": 0,
        "meta_classification_type": "U",
        "meta_norad_cat_id": 32729,
        "meta_element_set_no": 999,
        "meta_rev_at_epoch": 4379,
        "meta_bstar": 0,
        "meta_mean_motion_dot": -1.01e-06,
        "meta_mean_motion_ddot": 0,
        "tle_line1": "1 32729U 08013A   25353.67570138 -.00000101  00000+0  00000+0 0  9991",
        "tle_line2": "2 32729   0.0442 195.9689 0000477 333.3014  63.3182  1.00272169 43791"
      },
      "geometry": {
        "type": "Point",
        "coordinates": [
          103.41276115877726,
          0.01190724117679527
        ]
      }
    },
    {
      "type": "Feature",
      "properties": {
        "norad_id": 32951,
        "name": "GALAXY 18 (G-18)",
        "group": "intelsat",
        "lat": 0.02723700697247758,
        "lon": 79.59950217550725,
        "alt_km": 35797.90057109702,
        "timestamp": "2025-12-20T07:33:50.471402+00:00",
        "meta_object_name": "GALAXY 18 (G-18)",
        "meta_object_id": "2008-024A",
        "meta_epoch": "2025-12-19T17:48:48.275424",
        "meta_mean_motion": 1.00270899,
        "meta_eccentricity": 0.00028142,
        "meta_inclination": 0.0134,
        "meta_ra_of_asc_node": 45.0802,
        "meta_arg_of_pericenter": 227.8761,
        "meta_mean_anomaly": 319.8233,
        "meta_ephemeris_type": 0,
        "meta_classification_type": "U",
        "meta_norad_cat_id": 32951,
        "meta_element_set_no": 999,
        "meta_rev_at_epoch": 4405,
        "meta_bstar": 0,
        "meta_mean_motion_dot": 5e-07,
        "meta_mean_motion_ddot": 0,
        "tle_line1": "1 32951U 08024A   25353.74222541  .00000050  00000+0  00000+0 0  9992",
        "tle_line2": "2 32951   0.0134  45.0802 0002814 227.8761 319.8233  1.00270899 44055"
      },
      "geometry": {
        "type": "Point",
        "coordinates": [
          79.59950217550725,
          0.02723700697247758
        ]
      }
    },
    {
      "type": "Feature",
      "properties": {
        "norad_id": 33153,
        "name": "INTELSAT 25 (IS-25)",
        "group": "intelsat",
        "lat": 2.2495300521500474,
        "lon": 171.0387815790637,
        "alt_km": 35789.27464786809,
        "timestamp": "2025-12-20T07:33:50.471414+00:00",
        "meta_object_name": "INTELSAT 25 (IS-25)",
        "meta_object_id": "2008-034A",
        "meta_epoch": "2025-12-19T18:15:00.764928",
        "meta_mean_motion": 1.00270284,
        "meta_eccentricity": 0.00047932,
        "meta_inclination": 2.2448,
        "meta_ra_of_asc_node": 82.5753,
        "meta_arg_of_pericenter": 187.0495,
        "meta_mean_anomaly": 61.2247,
        "meta_ephemeris_type": 0,
        "meta_classification_type": "U",
        "meta_norad_cat_id": 33153,
        "meta_element_set_no": 999,
        "meta_rev_at_epoch": 6389,
        "meta_bstar": 0,
        "meta_mean_motion_dot": -2.02e-06,
        "meta_mean_motion_ddot": 0,
        "tle_line1": "1 33153U 08034A   25353.76042552 -.00000202  00000+0  00000+0 0  9992",
        "tle_line2": "2 33153   2.2448  82.5753 0004793 187.0495  61.2247  1.00270284 63896"
      },
      "geometry": {
        "type": "Point",
        "coordinates": [
          171.0387815790637,
          2.2495300521500474
        ]
      }
    }
  ]
}